[{"OBJECT_NAME":"O3B FM10","OBJECT_ID":"2014-083A","EPOCH":"2026-03-02T19:37:13.649376","MEAN_MOTION":5.0011519,"ECCENTRICITY":0.0002687,"INCLINATION":0.0434,"RA_OF_ASC_NODE":347.162,"ARG_OF_PERICENTER":352.9786,"MEAN_ANOMALY":19.8417,"EPHEMERIS_TYPE":0,"CLASSIFICATION_TYPE":"U","NORAD_CAT_ID":40348,"ELEMENT_SET_NO":999,"REV_AT_EPOCH":20457,"BSTAR":0,"MEAN_MOTION_DOT":-2.9e-7,"MEAN_MOTION_DDOT":0},{"OBJECT_NAME":"O3B FM11","OBJECT_ID":"2014-083B","EPOCH":"2026-03-02T19:55:32.979648","MEAN_MOTION":5.00115568,"ECCENTRICITY":0.0003138,"INCLINATION":0.0565,"RA_OF_ASC_NODE":0.5416,"ARG_OF_PERICENTER":330.063,"MEAN_ANOMALY":29.3705,"EPHEMERIS_TYPE":0,"CLASSIFICATION_TYPE":"U","NORAD_CAT_ID":40349,"ELEMENT_SET_NO":999,"REV_AT_EPOCH":20459,"BSTAR":0,"MEAN_MOTION_DOT":-2.9e-7,"MEAN_MOTION_DDOT":0},{"OBJECT_NAME":"O3B FM12","OBJECT_ID":"2014-083C","EPOCH":"2026-03-02T20:34:34.155264","MEAN_MOTION":5.00115929,"ECCENTRICITY":0.0002644,"INCLINATION":0.056,"RA_OF_ASC_NODE":359.7962,"ARG_OF_PERICENTER":337.2,"MEAN_ANOMALY":22.9847,"EPHEMERIS_TYPE":0,"CLASSIFICATION_TYPE":"U","NORAD_CAT_ID":40350,"ELEMENT_SET_NO":999,"REV_AT_EPOCH":20460,"BSTAR":0,"MEAN_MOTION_DOT":-2.9e-7,"MEAN_MOTION_DDOT":0},{"OBJECT_NAME":"O3B FM9","OBJECT_ID":"2014-083D","EPOCH":"2026-03-03T02:01:02.720928","MEAN_MOTION":5.00115869,"ECCENTRICITY":0.0002737,"INCLINATION":0.0577,"RA_OF_ASC_NODE":0.8097,"ARG_OF_PERICENTER":339.7312,"MEAN_ANOMALY":19.4415,"EPHEMERIS_TYPE":0,"CLASSIFICATION_TYPE":"U","NORAD_CAT_ID":40351,"ELEMENT_SET_NO":999,"REV_AT_EPOCH":20476,"BSTAR":0,"MEAN_MOTION_DOT":-2.8e-7,"MEAN_MOTION_DDOT":0},{"OBJECT_NAME":"ASTRA 2G","OBJECT_ID":"2014-089A","EPOCH":"2026-03-03T02:13:43.097952","MEAN_MOTION":1.00269985,"ECCENTRICITY":0.0004295,"INCLINATION":0.0222,"RA_OF_ASC_NODE":6.3417,"ARG_OF_PERICENTER":20.2642,"MEAN_ANOMALY":195.8802,"EPHEMERIS_TYPE":0,"CLASSIFICATION_TYPE":"U","NORAD_CAT_ID":40364,"ELEMENT_SET_NO":999,"REV_AT_EPOCH":4090,"BSTAR":0,"MEAN_MOTION_DOT":0,"MEAN_MOTION_DDOT":0},{"OBJECT_NAME":"SES-9","OBJECT_ID":"2016-013A","EPOCH":"2026-03-03T00:53:53.393856","MEAN_MOTION":1.00270527,"ECCENTRICITY":0.0001356,"INCLINATION":0.0419,"RA_OF_ASC_NODE":301.8108,"ARG_OF_PERICENTER":91.9886,"MEAN_ANOMALY":248.7581,"EPHEMERIS_TYPE":0,"CLASSIFICATION_TYPE":"U","NORAD_CAT_ID":41380,"ELEMENT_SET_NO":999,"REV_AT_EPOCH":3637,"BSTAR":0,"MEAN_MOTION_DOT":-3.61e-6,"MEAN_MOTION_DDOT":0},{"OBJECT_NAME":"SES-10","OBJECT_ID":"2017-017A","EPOCH":"2026-03-03T03:17:38.596128","MEAN_MOTION":1.00270236,"ECCENTRICITY":0.0002671,"INCLINATION":0.0184,"RA_OF_ASC_NODE":73.9531,"ARG_OF_PERICENTER":272.0062,"MEAN_ANOMALY":157.4447,"EPHEMERIS_TYPE":0,"CLASSIFICATION_TYPE":"U","NORAD_CAT_ID":42432,"ELEMENT_SET_NO":999,"REV_AT_EPOCH":3269,"BSTAR":0,"MEAN_MOTION_DOT":-2.88e-6,"MEAN_MOTION_DDOT":0},{"OBJECT_NAME":"SES-15","OBJECT_ID":"2017-026A","EPOCH":"2026-03-02T23:46:14.878272","MEAN_MOTION":1.00271248,"ECCENTRICITY":7.1e-5,"INCLINATION":0.0287,"RA_OF_ASC_NODE":284.1567,"ARG_OF_PERICENTER":54.3232,"MEAN_ANOMALY":49.6551,"EPHEMERIS_TYPE":0,"CLASSIFICATION_TYPE":"U","NORAD_CAT_ID":42709,"ELEMENT_SET_NO":999,"REV_AT_EPOCH":636,"BSTAR":0,"MEAN_MOTION_DOT":4.4e-7,"MEAN_MOTION_DDOT":0},{"OBJECT_NAME":"SES-11 (ECHOSTAR 105)","OBJECT_ID":"2017-063A","EPOCH":"2026-03-03T03:41:38.902272","MEAN_MOTION":1.00272041,"ECCENTRICITY":0.0002939,"INCLINATION":0.0335,"RA_OF_ASC_NODE":70.1776,"ARG_OF_PERICENTER":267.0898,"MEAN_ANOMALY":134.1097,"EPHEMERIS_TYPE":0,"CLASSIFICATION_TYPE":"U","NORAD_CAT_ID":42967,"ELEMENT_SET_NO":999,"REV_AT_EPOCH":3066,"BSTAR":0,"MEAN_MOTION_DOT":-1.05e-6,"MEAN_MOTION_DDOT":0},{"OBJECT_NAME":"SES-14","OBJECT_ID":"2018-012B","EPOCH":"2026-03-03T02:53:38.748768","MEAN_MOTION":1.00270809,"ECCENTRICITY":0.0001066,"INCLINATION":0.0153,"RA_OF_ASC_NODE":75.5076,"ARG_OF_PERICENTER":263.3991,"MEAN_ANOMALY":177.8818,"EPHEMERIS_TYPE":0,"CLASSIFICATION_TYPE":"U","NORAD_CAT_ID":43175,"ELEMENT_SET_NO":999,"REV_AT_EPOCH":596,"BSTAR":0,"MEAN_MOTION_DOT":-2.94e-6,"MEAN_MOTION_DDOT":0},{"OBJECT_NAME":"O3B FM15","OBJECT_ID":"2018-024A","EPOCH":"2026-03-02T03:37:58.377504","MEAN_MOTION":5.0011554,"ECCENTRICITY":0.00026853,"INCLINATION":0.0483,"RA_OF_ASC_NODE":0.6162,"ARG_OF_PERICENTER":337.4441,"MEAN_ANOMALY":21.9208,"EPHEMERIS_TYPE":0,"CLASSIFICATION_TYPE":"U","NORAD_CAT_ID":43231,"ELEMENT_SET_NO":999,"REV_AT_EPOCH":14567,"BSTAR":0,"MEAN_MOTION_DOT":-2.9e-7,"MEAN_MOTION_DDOT":0},{"OBJECT_NAME":"O3B FM16","OBJECT_ID":"2018-024B","EPOCH":"2026-02-28T19:18:29.707200","MEAN_MOTION":5.00115846,"ECCENTRICITY":0.0002785,"INCLINATION":0.0446,"RA_OF_ASC_NODE":2.3185,"ARG_OF_PERICENTER":333.1821,"MEAN_ANOMALY":24.4786,"EPHEMERIS_TYPE":0,"CLASSIFICATION_TYPE":"U","NORAD_CAT_ID":43232,"ELEMENT_SET_NO":999,"REV_AT_EPOCH":14552,"BSTAR":0,"MEAN_MOTION_DOT":-2.8e-7,"MEAN_MOTION_DDOT":0},{"OBJECT_NAME":"O3B FM14","OBJECT_ID":"2018-024C","EPOCH":"2026-03-03T01:03:26.695008","MEAN_MOTION":5.00115627,"ECCENTRICITY":0.0002847,"INCLINATION":0.0433,"RA_OF_ASC_NODE":1.3587,"ARG_OF_PERICENTER":340.9776,"MEAN_ANOMALY":17.6466,"EPHEMERIS_TYPE":0,"CLASSIFICATION_TYPE":"U","NORAD_CAT_ID":43233,"ELEMENT_SET_NO":999,"REV_AT_EPOCH":14563,"BSTAR":0,"MEAN_MOTION_DOT":-2.8e-7,"MEAN_MOTION_DDOT":0},{"OBJECT_NAME":"O3B FM13","OBJECT_ID":"2018-024D","EPOCH":"2026-03-03T02:38:16.342368","MEAN_MOTION":5.00115687,"ECCENTRICITY":0.0004295,"INCLINATION":0.0485,"RA_OF_ASC_NODE":331.6373,"ARG_OF_PERICENTER":331.6147,"MEAN_ANOMALY":56.6997,"EPHEMERIS_TYPE":0,"CLASSIFICATION_TYPE":"U","NORAD_CAT_ID":43234,"ELEMENT_SET_NO":999,"REV_AT_EPOCH":14574,"BSTAR":0,"MEAN_MOTION_DOT":-2.8e-7,"MEAN_MOTION_DDOT":0},{"OBJECT_NAME":"SES-12","OBJECT_ID":"2018-049A","EPOCH":"2026-03-03T02:32:48.768864","MEAN_MOTION":1.00267964,"ECCENTRICITY":0.0002141,"INCLINATION":0.0207,"RA_OF_ASC_NODE":117.9395,"ARG_OF_PERICENTER":182.5191,"MEAN_ANOMALY":353.6349,"EPHEMERIS_TYPE":0,"CLASSIFICATION_TYPE":"U","NORAD_CAT_ID":43488,"ELEMENT_SET_NO":999,"REV_AT_EPOCH":2835,"BSTAR":0,"MEAN_MOTION_DOT":0,"MEAN_MOTION_DDOT":0},{"OBJECT_NAME":"O3B FM20","OBJECT_ID":"2019-020A","EPOCH":"2026-03-02T20:53:04.314912","MEAN_MOTION":5.00115471,"ECCENTRICITY":0.0002817,"INCLINATION":0.0516,"RA_OF_ASC_NODE":359.6601,"ARG_OF_PERICENTER":330.2863,"MEAN_ANOMALY":30.0302,"EPHEMERIS_TYPE":0,"CLASSIFICATION_TYPE":"U","NORAD_CAT_ID":44112,"ELEMENT_SET_NO":999,"REV_AT_EPOCH":12625,"BSTAR":0,"MEAN_MOTION_DOT":-2.9e-7,"MEAN_MOTION_DDOT":0},{"OBJECT_NAME":"O3B FM19","OBJECT_ID":"2019-020B","EPOCH":"2026-02-27T21:34:30.034272","MEAN_MOTION":5.00116325,"ECCENTRICITY":0.0004795,"INCLINATION":0.0602,"RA_OF_ASC_NODE":347.5601,"ARG_OF_PERICENTER":353.9797,"MEAN_ANOMALY":18.4356,"EPHEMERIS_TYPE":0,"CLASSIFICATION_TYPE":"U","NORAD_CAT_ID":44113,"ELEMENT_SET_NO":999,"REV_AT_EPOCH":12597,"BSTAR":0,"MEAN_MOTION_DOT":-2.7e-7,"MEAN_MOTION_DDOT":0}]
