O3B FM10                
1 40348U 14083A   26061.81751909 -.00000029  00000+0  00000+0 0  9990
2 40348   0.0434 347.1620 0002687 352.9786  19.8417  5.00115190204578
O3B FM11                
1 40349U 14083B   26061.83024282 -.00000029  00000+0  00000+0 0  9990
2 40349   0.0565   0.5416 0003138 330.0630  29.3705  5.00115568204591
O3B FM12                
1 40350U 14083C   26061.85733976 -.00000029  00000+0  00000+0 0  9991
2 40350   0.0560 359.7962 0002644 337.2000  22.9847  5.00115929204603
O3B FM9                 
1 40351U 14083D   26062.08405927 -.00000028  00000+0  00000+0 0  9999
2 40351   0.0577   0.8097 0002737 339.7312  19.4415  5.00115869204763
ASTRA 2G                
1 40364U 14089A   26062.09285993  .00000000  00000+0  00000+0 0  9998
2 40364   0.0222   6.3417 0004295  20.2642 195.8802  1.00269985 40908
SES-9                   
1 41380U 16013A   26062.03742354 -.00000361  00000+0  00000+0 0  9990
2 41380   0.0419 301.8108 0001356  91.9886 248.7581  1.00270527 36377
SES-10                  
1 42432U 17017A   26062.13725227 -.00000288  00000+0  00000+0 0  9993
2 42432   0.0184  73.9531 0002671 272.0062 157.4447  1.00270236 32696
SES-15                  
1 42709U 17026A   26061.99044998  .00000044  00000+0  00000+0 0  9991
2 42709   0.0287 284.1567 0000710  54.3232  49.6551  1.00271248  6361
SES-11 (ECHOSTAR 105)   
1 42967U 17063A   26062.15392248 -.00000105  00000+0  00000+0 0  9990
2 42967   0.0335  70.1776 0002939 267.0898 134.1097  1.00272041 30669
SES-14                  
1 43175U 18012B   26062.12058737 -.00000294  00000+0  00000+0 0  9995
2 43175   0.0153  75.5076 0001066 263.3991 177.8818  1.00270809  5964
O3B FM15                
1 43231U 18024A   26061.15137011 -.00000029  00000+0  00000+0 0  9992
2 43231   0.0483   0.6162 0002685 337.4441  21.9208  5.00115540145678
O3B FM16                
1 43232U 18024B   26059.80451050 -.00000028  00000+0  00000+0 0  9993
2 43232   0.0446   2.3185 0002785 333.1821  24.4786  5.00115846145520
O3B FM14                
1 43233U 18024C   26062.04405897 -.00000028  00000+0  00000+0 0  9992
2 43233   0.0433   1.3587 0002847 340.9776  17.6466  5.00115627145634
O3B FM13                
1 43234U 18024D   26062.10991137 -.00000028  00000+0  00000+0 0  9997
2 43234   0.0485 331.6373 0004295 331.6147  56.6997  5.00115687145742
SES-12                  
1 43488U 18049A   26062.10612001  .00000000  00000+0  00000+0 0  9994
2 43488   0.0207 117.9395 0002141 182.5191 353.6349  1.00267964 28354
O3B FM20                
1 44112U 19020A   26061.87018883 -.00000029  00000+0  00000+0 0  9992
2 44112   0.0516 359.6601 0002817 330.2863  30.0302  5.00115471126257
O3B FM19                
1 44113U 19020B   26058.89895873 -.00000027  00000+0  00000+0 0  9991
2 44113   0.0602 347.5601 0004795 353.9797  18.4356  5.00116325125971
